NORAD_CAT_ID,OBJECT_NAME,OBJECT_TYPE,EPOCH,MEAN_MOTION,ECCENTRICITY,INCLINATION,RA_OF_ASC_NODE,ARG_OF_PERICENTER,MEAN_ANOMALY,BSTAR,MEAN_MOTION_DOT,MEAN_MOTION_DDOT,TLE_LINE0,TLE_LINE1,TLE_LINE2,SEMIMAJOR_AXIS,PERIOD,APOGEE,PERIGEE,DECAYED
52679.0,STARLINK-4031,PAYLOAD,2023-04-17 16:31:07,15.08846154,0.0001571,53.2156,209.1814,83.373,276.7441,0.00042188,6.434e-05,0.0,0 STARLINK-4031,1 52679U 22053Z   23107.68828247  .00006434  00000-0  42188-3 0  9992,2 52679  53.2156 209.1814 0001571  83.3730 276.7441 15.08846154 51566,6917.862,95.437,540.813,538.64,0.0
52679.0,STARLINK-4031,PAYLOAD,2023-04-18 10:00:22,15.08842198,0.0001698,53.216,205.9095,98.1954,261.923,0.00022278,3.259e-05,0.0,0 STARLINK-4031,1 52679U 22053Z   23108.41692316  .00003259  00000-0  22278-3 0  9990,2 52679  53.2160 205.9095 0001698  98.1954 261.9230 15.08842198 51676,6917.874,95.437,540.913,538.564,0.0
52679.0,STARLINK-4031,PAYLOAD,2023-04-18 16:21:54,15.08844388,0.0001762,53.2156,204.7194,100.0532,260.0659,0.00018719,2.693e-05,0.0,0 STARLINK-4031,1 52679U 22053Z   23108.68188220  .00002693  00000-0  18719-3 0  9999,2 52679  53.2156 204.7194 0001762 100.0532 260.0659 15.08844388 51718,6917.867,95.437,540.951,538.513,0.0
52679.0,STARLINK-4031,PAYLOAD,2023-04-19 05:05:00,15.08834836,0.0001379,53.2163,202.3448,76.131,283.9835,1.6967e-05,-1.8e-07,0.0,0 STARLINK-4031,1 52679U 22053Z   23109.21180747 -.00000018  00000-0  16967-4 0  9999,2 52679  53.2163 202.3448 0001379  76.1310 283.9835 15.08834836 51406,6917.896,95.438,540.715,538.807,0.0
52679.0,STARLINK-4031,PAYLOAD,2023-04-19 06:40:23,15.08836149,0.0001438,53.2159,202.0476,71.1743,288.9405,5.4886e-05,5.86e-06,0.0,0 STARLINK-4031,1 52679U 22053Z   23109.27804740  .00000586  00000-0  54886-4 0  9992,2 52679  53.2159 202.0476 0001438  71.1743 288.9405 15.08836149 51801,6917.892,95.438,540.752,538.762,0.0
52679.0,STARLINK-4031,PAYLOAD,2023-04-19 13:01:55,15.08847796,0.0001649,53.2164,200.8574,83.9703,276.1477,0.00020207,2.93e-05,0.0,0 STARLINK-4031,1 52679U 22053Z   23109.54300283  .00002930  00000-0  20207-3 0  9999,2 52679  53.2164 200.8574 0001649  83.9703 276.1477 15.08847796 51452,6917.857,95.437,540.862,538.581,0.0
52679.0,STARLINK-4031,PAYLOAD,2023-04-20 06:31:10,15.08839804,0.0001657,53.2186,197.588,94.4103,265.7078,-1.6861e-06,-3.15e-06,0.0,0 STARLINK-4031,1 52679U 22053Z   23110.27164590 -.00000315  00000-0 -16861-5 0  9990,2 52679  53.2186 197.5880 0001657  94.4103 265.7078 15.08839804 51955,6917.881,95.438,540.892,538.6,0.0
52679.0,STARLINK-4031,PAYLOAD,2023-04-20 12:52:42,15.08840356,0.0001496,53.2178,196.3985,91.1859,268.9305,-2.1966e-06,-3.23e-06,0.0,0 STARLINK-4031,1 52679U 22053Z   23110.53660489 -.00000323  00000-0 -21966-5 0  9998,2 52679  53.2178 196.3985 0001496  91.1859 268.9305 15.08840356 51998,6917.879,95.438,540.779,538.709,0.0
52679.0,STARLINK-4031,PAYLOAD,2023-04-21 07:57:20,15.08832191,0.0001597,53.2176,192.8305,97.3551,262.7622,1.1809e-05,-1e-06,0.0,0 STARLINK-4031,1 52679U 22053Z   23111.33149298 -.00000100  00000-0  11809-4 0  9993,2 52679  53.2176 192.8305 0001597  97.3551 262.7622 15.08832191 52119,6917.904,95.438,540.874,538.664,0.0
52679.0,STARLINK-4031,PAYLOAD,2023-04-21 14:18:53,15.08836843,0.0001603,53.2175,191.6408,95.5987,264.5188,2.2489e-05,7e-07,0.0,0 STARLINK-4031,1 52679U 22053Z   23111.59645190  .00000070  00000-0  22489-4 0  9994,2 52679  53.2175 191.6408 0001603  95.5987 264.5188 15.08836843 52159,6917.89,95.438,540.864,538.646,0.0
52679.0,STARLINK-4031,PAYLOAD,2023-04-22 14:09:39,15.08851681,0.0001262,53.2153,187.179,87.0144,273.0993,0.00028679,4.281e-05,0.0,0 STARLINK-4031,1 52679U 22053Z   23112.59004496  .00004281  00000-0  28679-3 0  9997,2 52679  53.2153 187.1790 0001262  87.0144 273.0993 15.08851681 51910,6917.845,95.437,540.583,538.837,0.0
52679.0,STARLINK-4031,PAYLOAD,2023-04-22 22:06:36,15.08838085,0.0001154,53.216,185.6925,95.8766,264.2358,0.0001227,1.665e-05,0.0,0 STARLINK-4031,1 52679U 22053Z   23112.92125148  .00001665  00000-0  12270-3 0  9995,2 52679  53.2160 185.6925 0001154  95.8766 264.2358 15.08838085 52357,6917.886,95.438,540.55,538.953,0.0
52679.0,STARLINK-4031,PAYLOAD,2023-04-23 10:49:41,15.08831761,0.0001345,53.2154,183.3125,95.6199,264.4946,-6.9306e-05,-1.39e-05,0.0,0 STARLINK-4031,1 52679U 22053Z   23113.45117594 -.00001390  00000-0 -69306-4 0  9990,2 52679  53.2154 183.3125 0001345  95.6199 264.4946 15.08831761 52435,6917.906,95.438,540.701,538.84,0.0
52679.0,STARLINK-4031,PAYLOAD,2023-04-24 04:18:55,15.0887825,0.0001208,53.2155,180.0402,100.7896,259.3232,0.00086156,0.00013465,0.0,0 STARLINK-4031,1 52679U 22053Z   23114.17980327  .00013465  00000-0  86156-3 0  9997,2 52679  53.2155 180.0402 0001208 100.7896 259.3232 15.08878250 52152,6917.763,95.435,540.464,538.793,0.0
52679.0,STARLINK-4031,PAYLOAD,2023-04-24 21:48:09,15.08839598,0.0001463,53.2147,176.7737,93.9983,266.1176,-0.00059769,-9.787e-05,0.0,0 STARLINK-4031,1 52679U 22053Z   23114.90844002 -.00009787  00000-0 -59769-3 0  9991,2 52679  53.2147 176.7737 0001463  93.9983 266.1176 15.08839598 52266,6917.882,95.438,540.759,538.735,0.0
52679.0,STARLINK-4031,PAYLOAD,2023-04-25 10:31:15,15.08798145,0.0001375,53.2147,174.3939,106.0848,254.0295,0.00038847,5.893e-05,0.0,0 STARLINK-4031,1 52679U 22053Z   23115.43837731  .00005893  00000-0  38847-3 0  9997,2 52679  53.2147 174.3939 0001375 106.0848 254.0295 15.08798145 52341,6918.008,95.44,540.825,538.922,0.0
52679.0,STARLINK-4031,PAYLOAD,2023-04-25 13:42:02,15.08796425,0.0001376,53.215,173.7988,104.9492,255.1653,0.00079228,0.00012329,0.0,0 STARLINK-4031,1 52679U 22053Z   23115.57086139  .00012329  00000-0  79228-3 0  9990,2 52679  53.2150 173.7988 0001376 104.9492 255.1653 15.08796425 52759,6918.014,95.44,540.831,538.927,0.0
52679.0,STARLINK-4031,PAYLOAD,2023-04-26 10:22:04,15.08825115,0.0001375,53.2152,169.9321,114.1254,245.9882,0.0010791,0.00016921,0.0,0 STARLINK-4031,1 52679U 22053Z   23116.43199670  .00016921  00000-0  10791-2 0  9992,2 52679  53.2152 169.9321 0001375 114.1254 245.9882 15.08825115 52881,6917.926,95.438,540.742,538.84,0.0
52679.0,STARLINK-4031,PAYLOAD,2023-04-26 15:08:14,15.0883133,0.0001339,53.2151,169.0402,112.5339,247.5795,0.0010631,0.00016668,0.0,0 STARLINK-4031,1 52679U 22053Z   23116.63071833  .00016668  00000-0  10631-2 0  9995,2 52679  53.2151 169.0402 0001339 112.5339 247.5795 15.08831330 52918,6917.907,95.438,540.698,538.846,0.0
52679.0,STARLINK-4031,PAYLOAD,2023-04-27 10:12:51,15.08854502,0.0001328,53.2156,165.4713,112.8673,247.246,0.00098296,0.00015397,0.0,0 STARLINK-4031,1 52679U 22053Z   23117.42559645  .00015397  00000-0  98296-3 0  9997,2 52679  53.2156 165.4713 0001328 112.8673 247.2460 15.08854502 53036,6917.836,95.437,540.62,538.782,0.0
52679.0,STARLINK-4031,PAYLOAD,2023-04-27 14:59:00,15.0886069,0.0001323,53.2155,164.5792,112.7949,247.3183,0.00098373,0.00015412,0.0,0 STARLINK-4031,1 52679U 22053Z   23117.62431399  .00015412  00000-0  98373-3 0  9998,2 52679  53.2155 164.5792 0001323 112.7949 247.3183 15.08860690 52679,6917.817,95.436,540.597,538.767,0.0
52679.0,STARLINK-4031,PAYLOAD,2023-04-28 10:03:37,15.08876177,0.0001318,53.2154,161.0114,117.8249,242.2877,0.00070575,0.00010973,0.0,0 STARLINK-4031,1 52679U 22053Z   23118.41917851  .00010973  00000-0  70575-3 0  9999,2 52679  53.2154 161.0114 0001318 117.8249 242.2877 15.08876177 53189,6917.77,95.435,540.547,538.723,0.0
52679.0,STARLINK-4031,PAYLOAD,2023-04-28 19:35:55,15.08864729,0.0001362,53.2152,159.2273,103.061,257.0534,0.00013949,1.934e-05,0.0,0 STARLINK-4031,1 52679U 22053Z   23118.81661446  .00001934  00000-0  13949-3 0  9998,2 52679  53.2152 159.2273 0001362 103.0610 257.0534 15.08864729 52857,6917.805,95.436,540.612,538.728,0.0
52679.0,STARLINK-4031,PAYLOAD,2023-04-29 11:29:47,15.08841243,0.0001444,53.2158,156.2575,70.5441,289.5707,-8.6624e-05,-1.666e-05,0.0,0 STARLINK-4031,1 52679U 22053Z   23119.47901696 -.00001666  00000-0 -86624-4 0  9990,2 52679  53.2158 156.2575 0001444  70.5441 289.5707 15.08841243 52955,6917.877,95.437,540.741,538.743,0.0
52679.0,STARLINK-4031,PAYLOAD,2023-04-30 03:23:37,15.08857647,0.0001223,53.215,153.2802,102.4926,257.6203,0.00071657,0.0001114,0.0,0 STARLINK-4031,1 52679U 22053Z   23120.14140903  .00011140  00000-0  71657-3 0  9997,2 52679  53.2150 153.2802 0001223 102.4926 257.6203 15.08857647 53059,6917.826,95.436,540.537,538.845,0.0
52679.0,STARLINK-4031,PAYLOAD,2023-04-30 11:20:33,15.08844153,0.0001538,53.2161,151.7976,110.2877,249.8281,-7.0742e-05,-1.414e-05,0.0,0 STARLINK-4031,1 52679U 22053Z   23120.47261472 -.00001414  00000-0 -70742-4 0  9998,2 52679  53.2161 151.7976 0001538 110.2877 249.8281 15.08844153 53100,6917.868,95.437,540.797,538.669,0.0
52679.0,STARLINK-4031,PAYLOAD,2023-05-01 11:11:21,15.08833087,0.0001364,53.2166,147.3283,91.4993,268.6156,1.3676e-05,-7e-07,0.0,0 STARLINK-4031,1 52679U 22053Z   23121.46622463 -.00000070  00000-0  13676-4 0  9998,2 52679  53.2166 147.3283 0001364  91.4993 268.6156 15.08833087 53253,6917.902,95.438,540.71,538.823,0.0
52679.0,STARLINK-4031,PAYLOAD,2023-05-02 11:02:08,15.08846187,0.0001285,53.217,142.869,90.7227,269.3912,0.0001424,1.979e-05,0.0,0 STARLINK-4031,1 52679U 22053Z   23122.45981706  .00001979  00000-0  14240-3 0  9991,2 52679  53.2170 142.8690 0001285  90.7227 269.3912 15.08846187 53404,6917.861,95.437,540.615,538.838,0.0
52679.0,STARLINK-4031,PAYLOAD,2023-05-02 12:37:31,15.08847909,0.0001303,53.2171,142.5722,90.6743,269.4399,0.00015586,2.194e-05,0.0,0 STARLINK-4031,1 52679U 22053Z   23122.52605572  .00002194  00000-0  15586-3 0  9997,2 52679  53.2171 142.5722 0001303  90.6743 269.4399 15.08847909 53808,6917.856,95.437,540.623,538.82,0.0
52679.0,STARLINK-4031,PAYLOAD,2023-05-03 04:31:23,15.08841695,0.0001253,53.2165,139.6006,97.6232,262.4902,0.0001297,1.777e-05,0.0,0 STARLINK-4031,1 52679U 22053Z   23123.18846077  .00001777  00000-0  12970-3 0  9997,2 52679  53.2165 139.6006 0001253  97.6232 262.4902 15.08841695 53514,6917.875,95.437,540.607,538.873,0.0
